[
    {
        "Altitude(m)": 574855.8382150808,
        "Argument of Periapsis(deg)": -0.015068773855314936,
        "Eccentricity": 0.0,
        "Inclination(deg)": 97.0,
        "Latitude(deg)": 66.29381796041893,
        "Longitude(deg)": -27.70019449942989,
        "Mean Anomaly(deg)": 67.21639551279165,
        "RAAN(deg)": 90.00396470241235,
        "Satellite Name": "Starlink Shell 3 1765",
        "Satellite Number": 1765,
        "Semi-Major Axis(m)": 6938478.169268562,
        "Time(s)": 380
    },
    {
        "Altitude(m)": 574963.1304595912,
        "Argument of Periapsis(deg)": -0.015465320535717962,
        "Eccentricity": 0.0,
        "Inclination(deg)": 97.0,
        "Latitude(deg)": 66.88761349817479,
        "Longitude(deg)": -28.220784807543282,
        "Mean Anomaly(deg)": 67.84187171049669,
        "RAAN(deg)": 90.00406903668636,
        "Satellite Name": "Starlink Shell 3 1765",
        "Satellite Number": 1765,
        "Semi-Major Axis(m)": 6938478.169268562,
        "Time(s)": 390
    },
    {
        "Altitude(m)": 575068.1835224642,
        "Argument of Periapsis(deg)": -0.015861867216120987,
        "Eccentricity": 0.0,
        "Inclination(deg)": 97.0,
        "Latitude(deg)": 67.47984050856412,
        "Longitude(deg)": -28.765137399365344,
        "Mean Anomaly(deg)": 68.46734790820173,
        "RAAN(deg)": 90.00417337096036,
        "Satellite Name": "Starlink Shell 3 1765",
        "Satellite Number": 1765,
        "Semi-Major Axis(m)": 6938478.169268562,
        "Time(s)": 400
    },
    {
        "Altitude(m)": 575170.9370730012,
        "Argument of Periapsis(deg)": -0.01625841389652401,
        "Eccentricity": 0.0,
        "Inclination(deg)": 97.0,
        "Latitude(deg)": 68.07037734942357,
        "Longitude(deg)": -29.335111266422476,
        "Mean Anomaly(deg)": 69.0928241059068,
        "RAAN(deg)": 90.00427770523437,
        "Satellite Name": "Starlink Shell 3 1765",
        "Satellite Number": 1765,
        "Semi-Major Axis(m)": 6938478.169268562,
        "Time(s)": 410
    },
    {
        "Altitude(m)": 575271.3321724953,
        "Argument of Periapsis(deg)": -0.016654960576927034,
        "Eccentricity": 0.0,
        "Inclination(deg)": 97.0,
        "Latitude(deg)": 68.65908919167828,
        "Longitude(deg)": -29.932755776360793,
        "Mean Anomaly(deg)": 69.71830030361185,
        "RAAN(deg)": 90.00438203950837,
        "Satellite Name": "Starlink Shell 3 1765",
        "Satellite Number": 1765,
        "Semi-Major Axis(m)": 6938478.169268562,
        "Time(s)": 420
    },
    {
        "Altitude(m)": 575369.3113023937,
        "Argument of Periapsis(deg)": -0.01705150725733006,
        "Eccentricity": 0.0,
        "Inclination(deg)": 97.0,
        "Latitude(deg)": 69.24582625321554,
        "Longitude(deg)": -30.56033371689101,
        "Mean Anomaly(deg)": 70.34377650131688,
        "RAAN(deg)": 90.0044863737824,
        "Satellite Name": "Starlink Shell 3 1765",
        "Satellite Number": 1765,
        "Semi-Major Axis(m)": 6938478.169268562,
        "Time(s)": 430
    },
    {
        "Altitude(m)": 575464.8183917388,
        "Argument of Periapsis(deg)": -0.017448053937733084,
        "Eccentricity": 0.0,
        "Inclination(deg)": 97.0,
        "Latitude(deg)": 69.83042175361153,
        "Longitude(deg)": -31.220347669633853,
        "Mean Anomaly(deg)": 70.96925269902192,
        "RAAN(deg)": 90.0045907080564,
        "Satellite Name": "Starlink Shell 3 1765",
        "Satellite Number": 1765,
        "Semi-Major Axis(m)": 6938478.169268562,
        "Time(s)": 440
    },
    {
        "Altitude(m)": 575557.7988438841,
        "Argument of Periapsis(deg)": -0.017844600618136107,
        "Eccentricity": 0.0,
        "Inclination(deg)": 97.0,
        "Latitude(deg)": 70.41268953949863,
        "Longitude(deg)": -31.915571725753946,
        "Mean Anomaly(deg)": 71.59472889672698,
        "RAAN(deg)": 90.0046950423304,
        "Satellite Name": "Starlink Shell 3 1765",
        "Satellite Number": 1765,
        "Semi-Major Axis(m)": 6938478.169268562,
        "Time(s)": 450
    },
    {
        "Altitude(m)": 575648.1995625068,
        "Argument of Periapsis(deg)": -0.018241147298539134,
        "Eccentricity": 0.0,
        "Inclination(deg)": 97.0,
        "Latitude(deg)": 70.99242132050311,
        "Longitude(deg)": -32.649086085042,
        "Mean Anomaly(deg)": 72.22020509443202,
        "RAAN(deg)": 90.00479937660441,
        "Satellite Name": "Starlink Shell 3 1765",
        "Satellite Number": 1765,
        "Semi-Major Axis(m)": 6938478.169268562,
        "Time(s)": 460
    },
    {
        "Altitude(m)": 575735.9689768361,
        "Argument of Periapsis(deg)": -0.018637693978942157,
        "Eccentricity": 0.0,
        "Inclination(deg)": 97.0,
        "Latitude(deg)": 71.56938344380441,
        "Longitude(deg)": -33.42431669058901,
        "Mean Anomaly(deg)": 72.84568129213704,
        "RAAN(deg)": 90.00490371087842,
        "Satellite Name": "Starlink Shell 3 1765",
        "Satellite Number": 1765,
        "Semi-Major Axis(m)": 6938478.169268562,
        "Time(s)": 470
    },
    {
        "Altitude(m)": 575821.0570661809,
        "Argument of Periapsis(deg)": -0.019034240659345183,
        "Eccentricity": 0.0,
        "Inclination(deg)": 97.0,
        "Latitude(deg)": 72.14331312112137,
        "Longitude(deg)": -34.245082122839214,
        "Mean Anomaly(deg)": 73.4711574898421,
        "RAAN(deg)": 90.00500804515244,
        "Satellite Name": "Starlink Shell 3 1765",
        "Satellite Number": 1765,
        "Semi-Major Axis(m)": 6938478.169268562,
        "Time(s)": 480
    },
    {
        "Altitude(m)": 575903.4153836557,
        "Argument of Periapsis(deg)": -0.019430787339748207,
        "Eccentricity": 0.0,
        "Inclination(deg)": 97.0,
        "Latitude(deg)": 72.7139140049041,
        "Longitude(deg)": -35.115645502991285,
        "Mean Anomaly(deg)": 74.09663368754717,
        "RAAN(deg)": 90.00511237942644,
        "Satellite Name": "Starlink Shell 3 1765",
        "Satellite Number": 1765,
        "Semi-Major Axis(m)": 6938478.169268562,
        "Time(s)": 490
    },
    {
        "Altitude(m)": 575982.9970791598,
        "Argument of Periapsis(deg)": -0.019827334020151237,
        "Eccentricity": 0.0,
        "Inclination(deg)": 97.0,
        "Latitude(deg)": 73.28085099026632,
        "Longitude(deg)": -36.040773741167705,
        "Mean Anomaly(deg)": 74.72210988525217,
        "RAAN(deg)": 90.00521671370043,
        "Satellite Name": "Starlink Shell 3 1765",
        "Satellite Number": 1765,
        "Semi-Major Axis(m)": 6938478.169268562,
        "Time(s)": 500
    },
    {
        "Altitude(m)": 576059.7569215697,
        "Argument of Periapsis(deg)": -0.020223880700554257,
        "Eccentricity": 0.0,
        "Inclination(deg)": 97.0,
        "Latitude(deg)": 73.8437440953543,
        "Longitude(deg)": -37.025806475706425,
        "Mean Anomaly(deg)": 75.3475860829572,
        "RAAN(deg)": 90.00532104797446,
        "Satellite Name": "Starlink Shell 3 1765",
        "Satellite Number": 1765,
        "Semi-Major Axis(m)": 6938478.169268562,
        "Time(s)": 510
    },
    {
        "Altitude(m)": 576133.6513201637,
        "Argument of Periapsis(deg)": -0.020620427380957283,
        "Eccentricity": 0.0,
        "Inclination(deg)": 97.0,
        "Latitude(deg)": 74.40216124516215,
        "Longitude(deg)": -38.076732457965676,
        "Mean Anomaly(deg)": 75.97306228066229,
        "RAAN(deg)": 90.00542538224846,
        "Satellite Name": "Starlink Shell 3 1765",
        "Satellite Number": 1765,
        "Semi-Major Axis(m)": 6938478.169268562,
        "Time(s)": 520
    },
    {
        "Altitude(m)": 576204.6383452183,
        "Argument of Periapsis(deg)": -0.021016974061360306,
        "Eccentricity": 0.0,
        "Inclination(deg)": 97.0,
        "Latitude(deg)": 74.95560975225573,
        "Longitude(deg)": -39.200275513912416,
        "Mean Anomaly(deg)": 76.59853847836733,
        "RAAN(deg)": 90.00552971652247,
        "Satellite Name": "Starlink Shell 3 1765",
        "Satellite Number": 1765,
        "Semi-Major Axis(m)": 6938478.169268562,
        "Time(s)": 530
    },
    {
        "Altitude(m)": 576272.677747838,
        "Argument of Periapsis(deg)": -0.021413520741763333,
        "Eccentricity": 0.0,
        "Inclination(deg)": 97.0,
        "Latitude(deg)": 75.50352625305293,
        "Longitude(deg)": -40.40399187640808,
        "Mean Anomaly(deg)": 77.22401467607239,
        "RAAN(deg)": 90.00563405079647,
        "Satellite Name": "Starlink Shell 3 1765",
        "Satellite Number": 1765,
        "Semi-Major Axis(m)": 6938478.169268562,
        "Time(s)": 540
    },
    {
        "Altitude(m)": 576337.7309789493,
        "Argument of Periapsis(deg)": -0.021810067422166356,
        "Eccentricity": 0.0,
        "Inclination(deg)": 97.0,
        "Latitude(deg)": 76.04526482177698,
        "Longitude(deg)": -41.696375529333935,
        "Mean Anomaly(deg)": 77.8494908737774,
        "RAAN(deg)": 90.0057383850705,
        "Satellite Name": "Starlink Shell 3 1765",
        "Satellite Number": 1765,
        "Semi-Major Axis(m)": 6938478.169268562,
        "Time(s)": 550
    },
    {
        "Altitude(m)": 576399.7612074965,
        "Argument of Periapsis(deg)": -0.022206614102569383,
        "Eccentricity": 0.0,
        "Inclination(deg)": 97.0,
        "Latitude(deg)": 76.58008294921596,
        "Longitude(deg)": -43.08697170259173,
        "Mean Anomaly(deg)": 78.47496707148245,
        "RAAN(deg)": 90.0058427193445,
        "Satellite Name": "Starlink Shell 3 1765",
        "Satellite Number": 1765,
        "Semi-Major Axis(m)": 6938478.169268562,
        "Time(s)": 560
    }
]